{
  "type": "FeatureCollection",
  "features": [
    {
      "type": "Feature",
      "properties": {
        "norad_id": 32128,
        "name": "FENGYUN 1C DEB",
        "group": "fengyun-1c-debris",
        "lat": -41.7697661684259,
        "lon": -148.13656403355924,
        "alt_km": 645.4415561399419,
        "timestamp": "2025-12-19T22:41:52.678780+00:00",
        "meta_object_name": "FENGYUN 1C DEB",
        "meta_object_id": "1999-025CRW",
        "meta_epoch": "2025-12-18T09:27:46.848672",
        "meta_mean_motion": 13.94234467,
        "meta_eccentricity": 0.03974081,
        "meta_inclination": 99.0304,
        "meta_ra_of_asc_node": 38.508,
        "meta_arg_of_pericenter": 207.364,
        "meta_mean_anomaly": 150.6083,
        "meta_ephemeris_type": 0,
        "meta_classification_type": "U",
        "meta_norad_cat_id": 32128,
        "meta_element_set_no": 999,
        "meta_rev_at_epoch": 63064,
        "meta_bstar": 0.00040367729,
        "meta_mean_motion_dot": 9.85e-06,
        "meta_mean_motion_ddot": 0,
        "tle_line1": "1 32128U 99025CRW 25352.39429223  .00000985  00000+0  40368-3 0  9997",
        "tle_line2": "2 32128  99.0304  38.5080 0397408 207.3640 150.6083 13.94234467630645"
      },
      "geometry": {
        "type": "Point",
        "coordinates": [
          -148.13656403355924,
          -41.7697661684259
        ]
      }
    },
    {
      "type": "Feature",
      "properties": {
        "norad_id": 32129,
        "name": "FENGYUN 1C DEB",
        "group": "fengyun-1c-debris",
        "lat": -75.35798439149701,
        "lon": 150.25830487669674,
        "alt_km": 804.4495607455829,
        "timestamp": "2025-12-19T22:41:52.678791+00:00",
        "meta_object_name": "FENGYUN 1C DEB",
        "meta_object_id": "1999-025CRX",
        "meta_epoch": "2025-12-15T06:35:06.946944",
        "meta_mean_motion": 14.28524934,
        "meta_eccentricity": 0.00675694,
        "meta_inclination": 99.0595,
        "meta_ra_of_asc_node": 107.7711,
        "meta_arg_of_pericenter": 26.1912,
        "meta_mean_anomaly": 5.9768,
        "meta_ephemeris_type": 0,
        "meta_classification_type": "U",
        "meta_norad_cat_id": 32129,
        "meta_element_set_no": 999,
        "meta_rev_at_epoch": 94263,
        "meta_bstar": 0.0015513104,
        "meta_mean_motion_dot": 3.939e-05,
        "meta_mean_motion_ddot": 0,
        "tle_line1": "1 32129U 99025CRX 25349.27438596  .00003939  00000+0  15513-2 0  9999",
        "tle_line2": "2 32129  99.0595 107.7711 0067569  26.1912   5.9768 14.28524934942635"
      },
      "geometry": {
        "type": "Point",
        "coordinates": [
          150.25830487669674,
          -75.35798439149701
        ]
      }
    },
    {
      "type": "Feature",
      "properties": {
        "norad_id": 32130,
        "name": "FENGYUN 1C DEB",
        "group": "fengyun-1c-debris",
        "lat": 22.65751774215261,
        "lon": 156.95955407567936,
        "alt_km": 749.6690405858026,
        "timestamp": "2025-12-19T22:41:52.678801+00:00",
        "meta_object_name": "FENGYUN 1C DEB",
        "meta_object_id": "1999-025CRY",
        "meta_epoch": "2025-12-16T17:45:08.612064",
        "meta_mean_motion": 14.37558126,
        "meta_eccentricity": 0.00823888,
        "meta_inclination": 98.9033,
        "meta_ra_of_asc_node": 157.3928,
        "meta_arg_of_pericenter": 318.2989,
        "meta_mean_anomaly": 41.1935,
        "meta_ephemeris_type": 0,
        "meta_classification_type": "U",
        "meta_norad_cat_id": 32130,
        "meta_element_set_no": 999,
        "meta_rev_at_epoch": 96292,
        "meta_bstar": 0.00039412838,
        "meta_mean_motion_dot": 1.18e-05,
        "meta_mean_motion_ddot": 0,
        "tle_line1": "1 32130U 99025CRY 25350.73968301  .00001180  00000+0  39413-3 0  9998",
        "tle_line2": "2 32130  98.9033 157.3928 0082388 318.2989  41.1935 14.37558126962920"
      },
      "geometry": {
        "type": "Point",
        "coordinates": [
          156.95955407567936,
          22.65751774215261
        ]
      }
    },
    {
      "type": "Feature",
      "properties": {
        "norad_id": 32133,
        "name": "FENGYUN 1C DEB",
        "group": "fengyun-1c-debris",
        "lat": -70.09255977168617,
        "lon": 150.6133819889624,
        "alt_km": 865.1053369331448,
        "timestamp": "2025-12-19T22:41:52.678811+00:00",
        "meta_object_name": "FENGYUN 1C DEB",
        "meta_object_id": "1999-025CSB",
        "meta_epoch": "2025-12-19T06:16:31.785600",
        "meta_mean_motion": 14.180765,
        "meta_eccentricity": 0.0036448,
        "meta_inclination": 98.4317,
        "meta_ra_of_asc_node": 354.142,
        "meta_arg_of_pericenter": 82.5455,
        "meta_mean_anomaly": 277.9861,
        "meta_ephemeris_type": 0,
        "meta_classification_type": "U",
        "meta_norad_cat_id": 32133,
        "meta_element_set_no": 999,
        "meta_rev_at_epoch": 95067,
        "meta_bstar": 0.00015712,
        "meta_mean_motion_dot": 2.84e-06,
        "meta_mean_motion_ddot": 0,
        "tle_line1": "1 32133U 99025CSB 25353.26147900  .00000284  00000+0  15712-3 0  9996",
        "tle_line2": "2 32133  98.4317 354.1420 0036448  82.5455 277.9861 14.18076500950678"
      },
      "geometry": {
        "type": "Point",
        "coordinates": [
          150.6133819889624,
          -70.09255977168617
        ]
      }
    },
    {
      "type": "Feature",
      "properties": {
        "norad_id": 32134,
        "name": "FENGYUN 1C DEB",
        "group": "fengyun-1c-debris",
        "lat": -11.298993228988873,
        "lon": 175.22833529840236,
        "alt_km": 704.8932487542006,
        "timestamp": "2025-12-19T22:41:52.678821+00:00",
        "meta_object_name": "FENGYUN 1C DEB",
        "meta_object_id": "1999-025CSC",
        "meta_epoch": "2025-12-17T11:24:43.243200",
        "meta_mean_motion": 14.21573578,
        "meta_eccentricity": 0.02590122,
        "meta_inclination": 98.594,
        "meta_ra_of_asc_node": 354.5516,
        "meta_arg_of_pericenter": 249.81,
        "meta_mean_anomaly": 269.0237,
        "meta_ephemeris_type": 0,
        "meta_classification_type": "U",
        "meta_norad_cat_id": 32134,
        "meta_element_set_no": 999,
        "meta_rev_at_epoch": 95214,
        "meta_bstar": 0.00046613441,
        "meta_mean_motion_dot": 1.386e-05,
        "meta_mean_motion_ddot": 0,
        "tle_line1": "1 32134U 99025CSC 25351.47550050  .00001386  00000+0  46613-3 0  9990",
        "tle_line2": "2 32134  98.5940 354.5516 0259012 249.8100 269.0237 14.21573578952145"
      },
      "geometry": {
        "type": "Point",
        "coordinates": [
          175.22833529840236,
          -11.298993228988873
        ]
      }
    },
    {
      "type": "Feature",
      "properties": {
        "norad_id": 32137,
        "name": "FENGYUN 1C DEB",
        "group": "fengyun-1c-debris",
        "lat": 76.65156871852042,
        "lon": 82.83173761594117,
        "alt_km": 567.8420844958619,
        "timestamp": "2025-12-19T22:41:52.678832+00:00",
        "meta_object_name": "FENGYUN 1C DEB",
        "meta_object_id": "1999-025CSF",
        "meta_epoch": "2025-12-17T15:13:57.776736",
        "meta_mean_motion": 14.81308237,
        "meta_eccentricity": 0.0187224,
        "meta_inclination": 98.441,
        "meta_ra_of_asc_node": 119.1403,
        "meta_arg_of_pericenter": 18.4875,
        "meta_mean_anomaly": 342.302,
        "meta_ephemeris_type": 0,
        "meta_classification_type": "U",
        "meta_norad_cat_id": 32137,
        "meta_element_set_no": 999,
        "meta_rev_at_epoch": 66803,
        "meta_bstar": 0.00053850151,
        "meta_mean_motion_dot": 5.625e-05,
        "meta_mean_motion_ddot": 0,
        "tle_line1": "1 32137U 99025CSF 25351.63469649  .00005625  00000+0  53850-3 0  9995",
        "tle_line2": "2 32137  98.4410 119.1403 0187224  18.4875 342.3020 14.81308237668034"
      },
      "geometry": {
        "type": "Point",
        "coordinates": [
          82.83173761594117,
          76.65156871852042
        ]
      }
    },
    {
      "type": "Feature",
      "properties": {
        "norad_id": 32141,
        "name": "FENGYUN 1C DEB",
        "group": "fengyun-1c-debris",
        "lat": -26.165995576174065,
        "lon": 171.7295919679832,
        "alt_km": 836.6552315901326,
        "timestamp": "2025-12-19T22:41:52.678842+00:00",
        "meta_object_name": "FENGYUN 1C DEB",
        "meta_object_id": "1999-025CSK",
        "meta_epoch": "2025-11-20T23:04:46.058016",
        "meta_mean_motion": 14.03501767,
        "meta_eccentricity": 0.00731678,
        "meta_inclination": 98.7436,
        "meta_ra_of_asc_node": 328.1999,
        "meta_arg_of_pericenter": 269.2169,
        "meta_mean_anomaly": 90.0615,
        "meta_ephemeris_type": 0,
        "meta_classification_type": "U",
        "meta_norad_cat_id": 32141,
        "meta_element_set_no": 999,
        "meta_rev_at_epoch": 94638,
        "meta_bstar": 0.00056632309,
        "meta_mean_motion_dot": 8.66e-06,
        "meta_mean_motion_ddot": 0,
        "tle_line1": "1 32141U 99025CSK 25324.96164419  .00000866  00000+0  56632-3 0  9996",
        "tle_line2": "2 32141  98.7436 328.1999 0073167 269.2169  90.0615 14.03501767946385"
      },
      "geometry": {
        "type": "Point",
        "coordinates": [
          171.7295919679832,
          -26.165995576174065
        ]
      }
    }
  ]
}